{
    "links": {
        "self": "http://www.neowsapp.com/rest/v1/neo/3377868?api_key=iIulBulltgU6a56xZRHN4H3l9WmuAYTsLGpBGhQ2"
    },
    "id": "3377868",
    "neo_reference_id": "3377868",
    "name": "(2007 KE4)",
    "designation": "2007 KE4",
    "nasa_jpl_url": "http://ssd.jpl.nasa.gov/sbdb.cgi?sstr=3377868",
    "absolute_magnitude_h": 25.2,
    "estimated_diameter": {
        "kilometers": {
            "estimated_diameter_min": 0.0242412481,
            "estimated_diameter_max": 0.0542050786
        },
        "meters": {
            "estimated_diameter_min": 24.2412481101,
            "estimated_diameter_max": 54.2050786336
        },
        "miles": {
            "estimated_diameter_min": 0.0150628086,
            "estimated_diameter_max": 0.0336814639
        },
        "feet": {
            "estimated_diameter_min": 79.5316564495,
            "estimated_diameter_max": 177.8381901842
        }
    },
    "is_potentially_hazardous_asteroid": false,
    "close_approach_data": [
        {
            "close_approach_date": "2007-05-27",
            "close_approach_date_full": "2007-May-27 23:09",
            "epoch_date_close_approach": 1180307340000,
            "relative_velocity": {
                "kilometers_per_second": "9.6851180123",
                "kilometers_per_hour": "34866.4248441052",
                "miles_per_hour": "21664.6404816052"
            },
            "miss_distance": {
                "astronomical": "0.018139727",
                "lunar": "7.056353803",
                "kilometers": "2713664.52158149",
                "miles": "1686192.943904962"
            },
            "orbiting_body": "Earth"
        }
    ],
    "orbital_data": {
        "orbit_id": "8",
        "orbit_determination_date": "2017-04-06 09:06:24",
        "first_observation_date": "2007-05-24",
        "last_observation_date": "2007-05-25",
        "data_arc_in_days": 1,
        "observations_used": 31,
        "orbit_uncertainty": "8",
        "minimum_orbit_intersection": ".0167337",
        "jupiter_tisserand_invariant": "3.267",
        "epoch_osculation": "2454245.5",
        "eccentricity": ".5742935903067147",
        "semi_major_axis": "2.397064376494016",
        "inclination": "9.373515965653562",
        "ascending_node_longitude": "65.10212923786892",
        "orbital_period": "1355.557591545603",
        "perihelion_distance": "1.020445669520941",
        "perihelion_argument": "194.4410638804134",
        "aphelion_distance": "3.77368308346709",
        "perihelion_time": "2454259.409148706879",
        "mean_anomaly": "356.3061004816718",
        "mean_motion": ".2655733716112563",
        "equinox": "J2000",
        "orbit_class": {
            "orbit_class_type": "AMO",
            "orbit_class_description": "Near-Earth asteroid orbits similar to that of 1221 Amor",
            "orbit_class_range": "1.017 AU < q (perihelion) < 1.3 AU"
        }
    },
    "is_sentry_object": false
}